{"type": "FeatureCollection", "features": [ {"type": "Feature", "properties": {"norad_id": 66935, "name": "STARLINK-36127", "group": "last-30-days", "lat": -25.371807653668814, "lon": -144.55123365896864, "alt_km": 337.7683235287541, "timestamp": "2025-12-19T20:42:58.814923+00:00", "meta": {"OBJECT_NAME": "STARLINK-36127", "OBJECT_ID": "2025-286L", "EPOCH": "2025-12-19T06:00:02.000160", "MEAN_MOTION": 15.80692888, "ECCENTRICITY": 8.879e-05, "INCLINATION": 53.1558, "RA_OF_ASC_NODE": 17.6874, "ARG_OF_PERICENTER": 82.0879, "MEAN_ANOMALY": 241.0682, "EPHEMERIS_TYPE": 0, "CLASSIFICATION_TYPE": "U", "NORAD_CAT_ID": 66935, "ELEMENT_SET_NO": 999, "REV_AT_EPOCH": 303, "BSTAR": -0.0080778097, "MEAN_MOTION_DOT": -0.01406495, "MEAN_MOTION_DDOT": 0}, "tle": {"line1": "1 66935U 25286L   25353.25002315 -.01406495  00000+0 -80778-2 0  9990", "line2": "2 66935  53.1558  17.6874 0000887  82.0879 241.0682 15.80692888  3032"}}, "geometry": {"type": "Point", "coordinates": [-144.55123365896864, -25.371807653668814]}}, {"type": "Feature", "properties": {"norad_id": 66936, "name": "STARLINK-36160", "group": "last-30-days", "lat": -26.926013023024055, "lon": -142.99932409023597, "alt_km": 337.956092708544, "timestamp": "2025-12-19T20:42:58.814934+00:00", "meta": {"OBJECT_NAME": "STARLINK-36160", "OBJECT_ID": "2025-286M", "EPOCH": "2025-12-19T06:00:02.000160", "MEAN_MOTION": 15.80691066, "ECCENTRICITY": 7.722e-05, "INCLINATION": 53.1558, "RA_OF_ASC_NODE": 17.6834, "ARG_OF_PERICENTER": 75.4848, "MEAN_ANOMALY": 249.7857, "EPHEMERIS_TYPE": 0, "CLASSIFICATION_TYPE": "U", "NORAD_CAT_ID": 66936, "ELEMENT_SET_NO": 999, "REV_AT_EPOCH": 303, "BSTAR": -0.008144821, "MEAN_MOTION_DOT": -0.01416685, "MEAN_MOTION_DDOT": 0}, "tle": {"line1": "1 66936U 25286M   25353.25002315 -.01416685  00000+0 -81448-2 0  9998", "line2": "2 66936  53.1558  17.6834 0000772  75.4848 249.7857 15.80691066  3030"}}, "geometry": {"type": "Point", "coordinates": [-142.99932409023597, -26.926013023024055]}}, {"type": "Feature", "properties": {"norad_id": 66937, "name": "STARLINK-36165", "group": "last-30-days", "lat": -28.4781654295944, "lon": -141.38843857061795, "alt_km": 338.2274963956388, "timestamp": "2025-12-19T20:42:58.814946+00:00", "meta": {"OBJECT_NAME": "STARLINK-36165", "OBJECT_ID": "2025-286N", "EPOCH": "2025-12-19T06:00:02.000160", "MEAN_MOTION": 15.80689009, "ECCENTRICITY": 8.752e-05, "INCLINATION": 53.1557, "RA_OF_ASC_NODE": 17.6786, "ARG_OF_PERICENTER": 73.0776, "MEAN_ANOMALY": 254.3367, "EPHEMERIS_TYPE": 0, "CLASSIFICATION_TYPE": "U", "NORAD_CAT_ID": 66937, "ELEMENT_SET_NO": 999, "REV_AT_EPOCH": 303, "BSTAR": -0.0082513698, "MEAN_MOTION_DOT": -0.01433058, "MEAN_MOTION_DDOT": 0}, "tle": {"line1": "1 66937U 25286N   25353.25002315 -.01433058  00000+0 -82514-2 0  9997", "line2": "2 66937  53.1557  17.6786 0000875  73.0776 254.3367 15.80689009  3036"}}, "geometry": {"type": "Point", "coordinates": [-141.38843857061795, -28.4781654295944]}}, {"type": "Feature", "properties": {"norad_id": 66938, "name": "STARLINK-36155", "group": "last-30-days", "lat": -30.011811280787448, "lon": -139.72844935625255, "alt_km": 338.3263628621344, "timestamp": "2025-12-19T20:42:58.814956+00:00", "meta": {"OBJECT_NAME": "STARLINK-36155", "OBJECT_ID": "2025-286P", "EPOCH": "2025-12-19T06:00:02.000160", "MEAN_MOTION": 15.8068499, "ECCENTRICITY": 7.799e-05, "INCLINATION": 53.1557, "RA_OF_ASC_NODE": 17.6738, "ARG_OF_PERICENTER": 80.2557, "MEAN_ANOMALY": 249.3127, "EPHEMERIS_TYPE": 0, "CLASSIFICATION_TYPE": "U", "NORAD_CAT_ID": 66938, "ELEMENT_SET_NO": 999, "REV_AT_EPOCH": 303, "BSTAR": -0.0083766445, "MEAN_MOTION_DOT": -0.01452015, "MEAN_MOTION_DDOT": 0}, "tle": {"line1": "1 66938U 25286P   25353.25002315 -.01452015  00000+0 -83766-2 0  9992", "line2": "2 66938  53.1557  17.6738 0000779  80.2557 249.3127 15.80684990  3036"}}, "geometry": {"type": "Point", "coordinates": [-139.72844935625255, -30.011811280787448]}}, {"type": "Feature", "properties": {"norad_id": 66939, "name": "STARLINK-36154", "group": "last-30-days", "lat": -33.1172425937282, "lon": -136.1195936399401, "alt_km": 338.89766271008284, "timestamp": "2025-12-19T20:42:58.814966+00:00", "meta": {"OBJECT_NAME": "STARLINK-36154", "OBJECT_ID": "2025-286Q", "EPOCH": "2025-12-19T06:00:02.000160", "MEAN_MOTION": 15.80657476, "ECCENTRICITY": 8.698e-05, "INCLINATION": 53.1556, "RA_OF_ASC_NODE": 17.6645, "ARG_OF_PERICENTER": 77.2895, "MEAN_ANOMALY": 256.7979, "EPHEMERIS_TYPE": 0, "CLASSIFICATION_TYPE": "U", "NORAD_CAT_ID": 66939, "ELEMENT_SET_NO": 999, "REV_AT_EPOCH": 303, "BSTAR": -0.0086982822, "MEAN_MOTION_DOT": -0.01499482, "MEAN_MOTION_DDOT": 0}, "tle": {"line1": "1 66939U 25286Q   25353.25002315 -.01499482  00000+0 -86983-2 0  9996", "line2": "2 66939  53.1556  17.6645 0000869  77.2895 256.7979 15.80657476  3030"}}, "geometry": {"type": "Point", "coordinates": [-136.1195936399401, -33.1172425937282]}}, {"type": "Feature", "properties": {"norad_id": 66940, "name": "STARLINK-36121", "group": "last-30-days", "lat": -34.54466328191333, "lon": -134.3290694595959, "alt_km": 338.87468587990406, "timestamp": "2025-12-19T20:42:58.814976+00:00", "meta": {"OBJECT_NAME": "STARLINK-36121", "OBJECT_ID": "2025-286R", "EPOCH": "2025-12-19T06:00:02.000160", "MEAN_MOTION": 15.80650095, "ECCENTRICITY": 6.428e-05, "INCLINATION": 53.1554, "RA_OF_ASC_NODE": 17.66, "ARG_OF_PERICENTER": 85.6064, "MEAN_ANOMALY": 250.5822, "EPHEMERIS_TYPE": 0, "CLASSIFICATION_TYPE": "U", "NORAD_CAT_ID": 66940, "ELEMENT_SET_NO": 999, "REV_AT_EPOCH": 303, "BSTAR": -0.0087723116, "MEAN_MOTION_DOT": -0.01510101, "MEAN_MOTION_DDOT": 0}, "tle": {"line1": "1 66940U 25286R   25353.25002315 -.01510101  00000+0 -87723-2 0  9993", "line2": "2 66940  53.1554  17.6600 0000642  85.6064 250.5822 15.80650095  3030"}}, "geometry": {"type": "Point", "coordinates": [-134.3290694595959, -34.54466328191333]}}, {"type": "Feature", "properties": {"norad_id": 66941, "name": "STARLINK-36088", "group": "last-30-days", "lat": -31.62935253977902, "lon": -137.8934138174543, "alt_km": 338.56026451422713, "timestamp": "2025-12-19T20:42:58.814986+00:00", "meta": {"OBJECT_NAME": "STARLINK-36088", "OBJECT_ID": "2025-286S", "EPOCH": "2025-12-19T06:00:02.000160", "MEAN_MOTION": 15.80663678, "ECCENTRICITY": 6.776e-05, "INCLINATION": 53.1552, "RA_OF_ASC_NODE": 17.6687, "ARG_OF_PERICENTER": 81.0159, "MEAN_ANOMALY": 250.9087, "EPHEMERIS_TYPE": 0, "CLASSIFICATION_TYPE": "U", "NORAD_CAT_ID": 66941, "ELEMENT_SET_NO": 999, "REV_AT_EPOCH": 303, "BSTAR": -0.0085629771, "MEAN_MOTION_DOT": -0.01479159, "MEAN_MOTION_DDOT": 0}, "tle": {"line1": "1 66941U 25286S   25353.25002315 -.01479159  00000+0 -85630-2 0  9996", "line2": "2 66941  53.1552  17.6687 0000677  81.0159 250.9087 15.80663678  3035"}}, "geometry": {"type": "Point", "coordinates": [-137.8934138174543, -31.62935253977902]}}, {"type": "Feature", "properties": {"norad_id": 66942, "name": "STARLINK-36100", "group": "last-30-days", "lat": -35.974117395181686, "lon": -132.43687054464962, "alt_km": 339.1335206015974, "timestamp": "2025-12-19T20:42:58.814998+00:00", "meta": {"OBJECT_NAME": "STARLINK-36100", "OBJECT_ID": "2025-286T", "EPOCH": "2025-12-19T06:00:02.000160", "MEAN_MOTION": 15.80635598, "ECCENTRICITY": 6.909e-05, "INCLINATION": 53.1554, "RA_OF_ASC_NODE": 17.6555, "ARG_OF_PERICENTER": 75.9606, "MEAN_ANOMALY": 262.3892, "EPHEMERIS_TYPE": 0, "CLASSIFICATION_TYPE": "U", "NORAD_CAT_ID": 66942, "ELEMENT_SET_NO": 999, "REV_AT_EPOCH": 296, "BSTAR": -0.0088479775, "MEAN_MOTION_DOT": -0.01520671, "MEAN_MOTION_DDOT": 0}, "tle": {"line1": "1 66942U 25286T   25353.25002315 -.01520671  00000+0 -88480-2 0  9999", "line2": "2 66942  53.1554  17.6555 0000690  75.9606 262.3892 15.80635598  2968"}}, "geometry": {"type": "Point", "coordinates": [-132.43687054464962, -35.974117395181686]}}, {"type": "Feature", "properties": {"norad_id": 66943, "name": "STARLINK-36109", "group": "last-30-days", "lat": -37.48372652892302, "lon": -130.31457211906206, "alt_km": 339.3335658353917, "timestamp": "2025-12-19T20:42:58.815010+00:00", "meta": {"OBJECT_NAME": "STARLINK-36109", "OBJECT_ID": "2025-286U", "EPOCH": "2025-12-19T06:00:02.000160", "MEAN_MOTION": 15.80595176, "ECCENTRICITY": 6.845e-05, "INCLINATION": 53.1552, "RA_OF_ASC_NODE": 17.6502, "ARG_OF_PERICENTER": 85.7276, "MEAN_ANOMALY": 255.0124, "EPHEMERIS_TYPE": 0, "CLASSIFICATION_TYPE": "U", "NORAD_CAT_ID": 66943, "ELEMENT_SET_NO": 999, "REV_AT_EPOCH": 296, "BSTAR": -0.0089526805, "MEAN_MOTION_DOT": -0.01533915, "MEAN_MOTION_DDOT": 0}, "tle": {"line1": "1 66943U 25286U   25353.25002315 -.01533915  00000+0 -89527-2 0  9998", "line2": "2 66943  53.1552  17.6502 0000684  85.7276 255.0124 15.80595176  2968"}}, "geometry": {"type": "Point", "coordinates": [-130.31457211906206, -37.48372652892302]}}, {"type": "Feature", "properties": {"norad_id": 66944, "name": "STARLINK-36112", "group": "last-30-days", "lat": -38.81112971104994, "lon": -128.3265151082068, "alt_km": 339.49786343656433, "timestamp": "2025-12-19T20:42:58.815022+00:00", "meta": {"OBJECT_NAME": "STARLINK-36112", "OBJECT_ID": "2025-286V", "EPOCH": "2025-12-19T06:00:02.000160", "MEAN_MOTION": 15.8058453, "ECCENTRICITY": 7.176e-05, "INCLINATION": 53.1549, "RA_OF_ASC_NODE": 17.6455, "ARG_OF_PERICENTER": 83.1885, "MEAN_ANOMALY": 259.6416, "EPHEMERIS_TYPE": 0, "CLASSIFICATION_TYPE": "U", "NORAD_CAT_ID": 66944, "ELEMENT_SET_NO": 999, "REV_AT_EPOCH": 303, "BSTAR": -0.0089955351, "MEAN_MOTION_DOT": -0.01539704, "MEAN_MOTION_DDOT": 0}, "tle": {"line1": "1 66944U 25286V   25353.25002315 -.01539704  00000+0 -89955-2 0  9996", "line2": "2 66944  53.1549  17.6455 0000717  83.1885 259.6416 15.80584530  3032"}}, "geometry": {"type": "Point", "coordinates": [-128.3265151082068, -38.81112971104994]}}]}